NORAD_CAT_ID,OBJECT_NAME,OBJECT_TYPE,EPOCH,MEAN_MOTION,ECCENTRICITY,INCLINATION,RA_OF_ASC_NODE,ARG_OF_PERICENTER,MEAN_ANOMALY,BSTAR,MEAN_MOTION_DOT,MEAN_MOTION_DDOT,TLE_LINE0,TLE_LINE1,TLE_LINE2,SEMIMAJOR_AXIS,PERIOD,APOGEE,PERIGEE,DECAYED
55269.0,STARLINK-5277,PAYLOAD,2023-10-07 22:04:16,14.98332845,0.0002995,69.9984,112.8418,271.5544,88.5272,9.024e-05,9.84e-06,0.0,0 STARLINK-5277,1 55269U 23010A   23280.91963129  .00000984  00000-0  90240-4 0  9998,2 55269  69.9984 112.8418 0002995 271.5544  88.5272 14.98332845 40689,6950.184,96.107,574.131,569.968,0.0
55269.0,STARLINK-5277,PAYLOAD,2023-10-08 14:05:36,14.98330578,0.0002927,69.9985,111.1584,270.3018,89.7806,7.5686e-05,8.1e-06,0.0,0 STARLINK-5277,1 55269U 23010A   23281.58723297  .00000810  00000-0  75686-4 0  9997,2 55269  69.9985 111.1584 0002927 270.3018  89.7806 14.98330578 40782,6950.191,96.107,574.09,570.022,0.0
55269.0,STARLINK-5277,PAYLOAD,2023-10-08 20:30:09,14.98330919,0.0002908,69.9986,110.4852,269.8384,90.2442,7.4972e-05,8.02e-06,0.0,0 STARLINK-5277,1 55269U 23010A   23281.85427269  .00000802  00000-0  74972-4 0  9995,2 55269  69.9986 110.4852 0002908 269.8384  90.2442 14.98330919 40828,6950.19,96.107,574.076,570.034,0.0
55269.0,STARLINK-5277,PAYLOAD,2023-10-08 22:06:17,14.98330951,0.0002941,69.9985,110.3168,270.2551,89.8271,7.1556e-05,7.61e-06,0.0,0 STARLINK-5277,1 55269U 23010A   23281.92103269  .00000761  00000-0  71556-4 0  9993,2 55269  69.9985 110.3168 0002941 270.2551  89.8271 14.98330951 40241,6950.19,96.107,574.099,570.011,0.0
55269.0,STARLINK-5277,PAYLOAD,2023-10-09 14:07:37,14.98331129,0.0002953,69.9985,108.6331,270.087,89.9951,1.3525e-05,6.8e-07,0.0,0 STARLINK-5277,1 55269U 23010A   23282.58863354  .00000068  00000-0  13525-4 0  9996,2 55269  69.9985 108.6331 0002953 270.0870  89.9951 14.98331129 40938,6950.189,96.107,574.107,570.002,0.0
55269.0,STARLINK-5277,PAYLOAD,2023-10-09 20:32:10,14.98331143,0.0002951,69.9984,107.9598,270.1188,89.9633,1.23e-05,5.4e-07,0.0,0 STARLINK-5277,1 55269U 23010A   23282.85567332  .00000054  00000-0  12300-4 0  9998,2 55269  69.9984 107.9598 0002951 270.1188  89.9633 14.98331143 40972,6950.189,96.107,574.105,570.003,0.0
55269.0,STARLINK-5277,PAYLOAD,2023-10-09 22:08:18,14.983313,0.0002957,69.9984,107.7914,270.181,89.901,1.2749e-05,5.9e-07,0.0,0 STARLINK-5277,1 55269U 23010A   23282.92243312  .00000059  00000-0  12749-4 0  9997,2 55269  69.9984 107.7914 0002957 270.1810  89.9010 14.98331300 40390,6950.189,96.107,574.109,569.999,0.0
55269.0,STARLINK-5277,PAYLOAD,2023-10-10 14:09:38,14.98332976,0.0003003,69.9981,106.1077,269.9511,90.1304,7.7101e-05,8.27e-06,0.0,0 STARLINK-5277,1 55269U 23010A   23283.59002987  .00000827  00000-0  77101-4 0  9998,2 55269  69.9981 106.1077 0003003 269.9511  90.1304 14.98332976 41084,6950.184,96.107,574.136,569.962,0.0
55269.0,STARLINK-5277,PAYLOAD,2023-10-10 20:34:10,14.98333586,0.0003038,69.9983,105.4346,270.2802,89.8009,5.6898e-05,5.86e-06,0.0,0 STARLINK-5277,1 55269U 23010A   23283.85706953  .00000586  00000-0  56898-4 0  9993,2 55269  69.9983 105.4346 0003038 270.2802  89.8009 14.98333586 41123,6950.182,96.107,574.158,569.935,0.0
55269.0,STARLINK-5277,PAYLOAD,2023-10-10 22:10:18,14.98334218,0.0003036,69.9984,105.2662,270.2917,89.7895,6.3138e-05,6.6e-06,0.0,0 STARLINK-5277,1 55269U 23010A   23283.92382886  .00000660  00000-0  63138-4 0  9994,2 55269  69.9984 105.2662 0003036 270.2917  89.7895 14.98334218 40548,6950.18,96.107,574.155,569.935,0.0
55269.0,STARLINK-5277,PAYLOAD,2023-10-11 14:11:39,14.98329214,0.0003036,69.9984,103.5829,270.2425,89.8386,5.4127e-05,5.53e-06,0.0,0 STARLINK-5277,1 55269U 23010A   23284.59143222  .00000553  00000-0  54127-4 0  9996,2 55269  69.9984 103.5829 0003036 270.2425  89.8386 14.98329214 41231,6950.195,96.107,574.17,569.95,0.0
55269.0,STARLINK-5277,PAYLOAD,2023-10-11 20:36:11,14.98330292,0.0003057,69.9986,102.9096,270.47,89.6109,5.0623e-05,5.11e-06,0.0,0 STARLINK-5277,1 55269U 23010A   23284.85847172  .00000511  00000-0  50623-4 0  9991,2 55269  69.9986 102.9096 0003057 270.4700  89.6109 14.98330292 40680,6950.192,96.107,574.182,569.932,0.0
55269.0,STARLINK-5277,PAYLOAD,2023-10-12 12:37:32,14.98335617,0.0003052,69.999,101.2264,270.4749,89.606,6.3784e-05,6.68e-06,0.0,0 STARLINK-5277,1 55269U 23010A   23285.52606722  .00000668  00000-0  63784-4 0  9995,2 55269  69.9990 101.2264 0003052 270.4749  89.6060 14.98335617 41371,6950.176,96.107,574.162,569.919,0.0
55269.0,STARLINK-5277,PAYLOAD,2023-10-12 22:14:20,14.98337077,0.0003038,69.999,100.2166,270.3017,89.7794,7.4942e-05,8.01e-06,0.0,0 STARLINK-5277,1 55269U 23010A   23285.92662468  .00000801  00000-0  74942-4 0  9995,2 55269  69.9990 100.2166 0003038 270.3017  89.7794 14.98337077 41436,6950.171,96.107,574.147,569.925,0.0
55269.0,STARLINK-5277,PAYLOAD,2023-10-13 12:39:33,14.98329773,0.000298,69.9993,98.702,268.4663,91.6155,4.5723e-05,4.53e-06,0.0,0 STARLINK-5277,1 55269U 23010A   23286.52746923  .00000453  00000-0  45723-4 0  9999,2 55269  69.9993  98.7020 0002980 268.4663  91.6155 14.98329773 40930,6950.194,96.107,574.13,569.987,0.0
55269.0,STARLINK-5277,PAYLOAD,2023-10-13 14:15:41,14.98329657,0.0002983,69.9993,98.5336,268.3773,91.7044,4.3271e-05,4.23e-06,0.0,0 STARLINK-5277,1 55269U 23010A   23286.59422933  .00000423  00000-0  43271-4 0  9991,2 55269  69.9993  98.5336 0002983 268.3773  91.7044 14.98329657 41538,6950.194,96.107,574.132,569.986,0.0
55269.0,STARLINK-5277,PAYLOAD,2023-10-13 20:40:13,14.98330722,0.0002864,69.9996,97.8601,267.5236,92.5595,3.451e-05,3.19e-06,0.0,0 STARLINK-5277,1 55269U 23010A   23286.86126925  .00000319  00000-0  34510-4 0  9993,2 55269  69.9996  97.8601 0002864 267.5236  92.5595 14.98330722 41570,6950.191,96.107,574.046,570.065,0.0
55269.0,STARLINK-5277,PAYLOAD,2023-10-14 14:17:42,14.9833502,0.000314,69.9992,96.0083,273.9692,86.1108,-2.2446e-05,-3.61e-06,0.0,0 STARLINK-5277,1 55269U 23010A   23287.59562686 -.00000361  00000-0 -22446-4 0  9996,2 55269  69.9992  96.0083 0003140 273.9692  86.1108 14.98335020 41683,6950.177,96.107,574.225,569.86,0.0
55269.0,STARLINK-5277,PAYLOAD,2023-10-14 20:42:14,14.983322,0.0003017,69.9993,95.3351,270.4611,89.6202,5.9883e-06,-2.2e-07,0.0,0 STARLINK-5277,1 55269U 23010A   23287.86266730 -.00000022  00000-0  59883-5 0  9996,2 55269  69.9993  95.3351 0003017 270.4611  89.6202 14.98332200 41130,6950.186,96.107,574.148,569.954,0.0
55269.0,STARLINK-5277,PAYLOAD,2023-10-15 14:19:43,14.98327758,0.0002996,69.9993,93.4831,270.0946,89.987,3.6357e-05,3.41e-06,0.0,0 STARLINK-5277,1 55269U 23010A   23288.59702961  .00000341  00000-0  36357-4 0  9991,2 55269  69.9993  93.4831 0002996 270.0946  89.9870 14.98327758 41837,6950.2,96.107,574.147,569.983,0.0
55269.0,STARLINK-5277,PAYLOAD,2023-10-15 20:44:15,14.98328149,0.0003031,69.9993,92.8096,269.5298,90.5514,2.8023e-05,2.41e-06,0.0,0 STARLINK-5277,1 55269U 23010A   23288.86406965  .00000241  00000-0  28023-4 0  9996,2 55269  69.9993  92.8096 0003031 269.5298  90.5514 14.98328149 41284,6950.199,96.107,574.17,569.957,0.0
55269.0,STARLINK-5277,PAYLOAD,2023-10-16 14:21:44,14.98330012,0.0003091,69.9991,90.9575,269.2865,90.794,6.3616e-05,6.66e-06,0.0,0 STARLINK-5277,1 55269U 23010A   23289.59842758  .00000666  00000-0  63616-4 0  9999,2 55269  69.9991  90.9575 0003091 269.2865  90.7940 14.98330012 41980,6950.193,96.107,574.206,569.91,0.0
55269.0,STARLINK-5277,PAYLOAD,2023-10-16 17:34:00,14.98331168,0.0003085,69.9992,90.6206,268.8305,91.25,4.4346e-05,4.36e-06,0.0,0 STARLINK-5277,1 55269U 23010A   23289.73194730  .00000436  00000-0  44346-4 0  9999,2 55269  69.9992  90.6206 0003085 268.8305  91.2500 14.98331168 42001,6950.189,96.107,574.198,569.91,0.0
55269.0,STARLINK-5277,PAYLOAD,2023-10-17 11:11:29,14.9832855,0.0003109,69.9993,88.7689,268.7221,91.3581,5.0889e-05,5.14e-06,0.0,0 STARLINK-5277,1 55269U 23010A   23290.46630883  .00000514  00000-0  50889-4 0  9991,2 55269  69.9993  88.7689 0003109 268.7221  91.3581 14.98328550 41525,6950.197,96.107,574.223,569.902,0.0
55269.0,STARLINK-5277,PAYLOAD,2023-10-17 17:36:01,14.98326302,0.0003138,69.9993,88.0959,269.0843,90.9956,7.9798e-06,2e-08,0.0,0 STARLINK-5277,1 55269U 23010A   23290.73335185  .00000002  00000-0  79798-5 0  9991,2 55269  69.9993  88.0959 0003138 269.0843  90.9956 14.98326302 42158,6950.204,96.107,574.25,569.888,0.0
55269.0,STARLINK-5277,PAYLOAD,2023-10-18 11:13:30,14.983309,0.000311,69.9993,86.244,268.5574,91.5229,2.7942e-05,2.4e-06,0.0,0 STARLINK-5277,1 55269U 23010A   23291.46770905  .00000240  00000-0  27942-4 0  9992,2 55269  69.9993  86.2440 0003110 268.5574  91.5229 14.98330900 41673,6950.19,96.107,574.217,569.894,0.0
55269.0,STARLINK-5277,PAYLOAD,2023-10-19 16:03:51,14.98387578,0.0002093,69.9987,83.2146,255.4408,104.6518,0.00023095,2.668e-05,0.0,0 STARLINK-5277,1 55269U 23010A   23292.66934625  .00002668  00000-0  23095-3 0  9996,2 55269  69.9987  83.2146 0002093 255.4408 104.6518 14.98387578 41856,6950.015,96.103,573.334,570.425,0.0
55269.0,STARLINK-5277,PAYLOAD,2023-10-20 03:16:52,14.98318638,0.0003185,69.9996,82.0366,267.8765,92.203,-9.9026e-05,-1.274e-05,0.0,0 STARLINK-5277,1 55269U 23010A   23293.13671367 -.00001274  00000-0 -99026-4 0  9992,2 55269  69.9996  82.0366 0003185 267.8765  92.2030 14.98318638 41923,6950.228,96.108,574.307,569.879,0.0
55269.0,STARLINK-5277,PAYLOAD,2023-10-20 11:17:32,14.98323696,0.0003223,69.9998,81.195,267.6568,92.4222,-0.00011798,-1.5e-05,0.0,0 STARLINK-5277,1 55269U 23010A   23293.47051247 -.00001500  00000-0 -11798-3 0  9999,2 55269  69.9998  81.1950 0003223 267.6568  92.4222 14.98323696 42562,6950.212,96.107,574.317,569.837,0.0
55269.0,STARLINK-5277,PAYLOAD,2023-10-20 19:18:12,14.98327361,0.0003171,69.999,80.353,268.6394,91.4402,-6.1718e-05,-8.29e-06,0.0,0 STARLINK-5277,1 55269U 23010A   23293.80430943 -.00000829  00000-0 -61718-4 0  9991,2 55269  69.9990  80.3530 0003171 268.6394  91.4402 14.98327361 42022,6950.201,96.107,574.27,569.862,0.0
